OBJECT_NAME,OBJECT_ID,EPOCH,MEAN_MOTION,ECCENTRICITY,INCLINATION,RA_OF_ASC_NODE,ARG_OF_PERICENTER,MEAN_ANOMALY,EPHEMERIS_TYPE,CLASSIFICATION_TYPE,NORAD_CAT_ID,ELEMENT_SET_NO,REV_AT_EPOCH,BSTAR,MEAN_MOTION_DOT,MEAN_MOTION_DDOT
ONEWEB-0597,2022-166X,2026-07-13T15:07:12.005184,13.21823705,.00018179,87.9221,238.7265,104.3580,255.7756,0,U,54663,999,17503,.1038304E-3,.56E-6,0
ONEWEB-0600,2022-166Y,2026-07-13T14:40:35.177664,13.21825480,.00019804,87.9233,238.7202,100.2134,259.9223,0,U,54664,999,17500,.12894066E-3,.66E-6,0
ONEWEB-0601,2022-166Z,2026-07-13T14:28:27.427008,13.21824904,.00016969,87.9224,238.7389,101.4351,258.6973,0,U,54665,999,17519,.19031277E-3,.92E-6,0
ONEWEB-0602,2022-166AA,2026-07-13T15:27:47.347200,13.21823585,.00019019,87.9232,238.7353,103.1538,256.9808,0,U,54666,999,17504,.50817127E-4,.34E-6,0
ONEWEB-0603,2022-166AB,2026-07-13T11:58:15.360960,13.21823677,.00019619,87.9254,238.7220,100.3413,259.7943,0,U,54667,999,17495,-.17864271E-4,.6E-7,0
ONEWEB-0604,2022-166AC,2026-07-13T15:19:18.414048,13.21823738,.00020987,87.9247,238.7113,98.8616,261.2756,0,U,54668,999,17493,.48077105E-4,.33E-6,0
ONEWEB-0605,2022-166AD,2026-07-13T15:09:37.130400,13.21824029,.00018798,87.9237,238.7237,81.2146,278.9200,0,U,54669,999,17500,-.50840948E-4,-.8E-7,0
ONEWEB-0606,2022-166AE,2026-07-13T12:03:06.724224,13.21824835,.00021882,87.9234,238.7624,100.6705,259.4676,0,U,54670,999,17504,.5404066E-5,.15E-6,0
ONEWEB-0607,2022-166AF,2026-07-13T14:52:41.719584,13.21825535,.00019369,87.9238,238.7123,95.8141,264.3214,0,U,54671,999,17503,.19507684E-3,.94E-6,0
ONEWEB-0608,2022-166AG,2026-07-13T15:02:20.876064,13.21823765,.00019372,87.9234,238.7095,79.5240,280.6112,0,U,54672,999,17504,.82610321E-4,.47E-6,0
ONEWEB-0610,2022-166AH,2026-07-13T14:33:18.982080,13.21825905,.00015086,87.9234,238.7234,89.5993,270.5313,0,U,54673,999,17494,.17893274E-3,.87E-6,0
ONEWEB-0611,2022-166AJ,2026-07-13T14:23:35.451168,13.21826480,.00021962,87.9235,238.7199,97.8343,262.3040,0,U,54674,999,17493,.18422839E-3,.89E-6,0
ONEWEB-0612,2022-166AK,2026-07-13T14:42:59.667840,13.21826432,.00017681,87.9241,238.7171,98.1581,261.9753,0,U,54675,999,17492,.11683612E-3,.61E-6,0
ONEWEB-0615,2022-166AL,2026-07-13T14:13:54.312672,13.21823619,.00022026,87.9234,238.7327,101.2160,258.9222,0,U,54676,999,17493,.35189623E-4,.28E-6,0
ONEWEB-0655,2022-166AM,2026-07-13T15:28:59.985408,13.21823285,.00018729,87.9212,238.7268,103.5657,256.5686,0,U,54677,999,17493,-.52169795E-4,-.9E-7,0
ONEWEB-0659,2022-166AN,2026-07-13T14:04:13.852416,13.21824714,.00026131,87.9220,238.7369,79.4795,280.6633,0,U,54678,999,17501,.18337704E-3,.89E-6,0
ONEWEB-0685,2022-166AP,2026-07-13T14:03:44.229312,13.21848047,.00025756,87.9248,238.7225,65.3671,294.7731,0,U,54679,999,17490,-.31965534E-3,-.119E-5,0
ONEWEB-0712,2022-166AQ,2026-07-13T13:59:26.698560,13.16595287,.00017875,87.9080,223.5318,106.1927,253.9401,0,U,54680,999,17553,-.13633222E-3,-.39E-6,0
ONEWEB-0714,2022-166AR,2026-07-13T14:11:30.902496,13.21825783,.00019993,87.9234,238.7228,104.6883,255.4473,0,U,54681,999,17502,.90768909E-4,.51E-6,0
ONEWEB-0532,2023-004A,2026-07-13T10:59:56.443488,13.17649078,.00020083,87.9142,0.6374,85.5588,274.5773,0,U,55140,999,17104,.23768628E-3,.105E-5,0
ONEWEB-0533,2023-004B,2026-07-13T10:54:09.450720,13.12442953,.00016533,87.8961,345.4469,93.6385,266.4933,0,U,55141,999,17150,-.94590267E-3,-.328E-5,0
ONEWEB-0541,2023-004C,2026-07-13T12:06:45.662688,13.11414856,.00020414,87.8894,15.8193,89.5666,270.5696,0,U,55142,999,16939,.10079293E-2,.37E-5,0
ONEWEB-0543,2023-004D,2026-07-13T10:00:40.800096,13.18686586,.00018649,87.9184,330.2519,105.1033,255.0305,0,U,55143,999,17315,.9811115E-5,.17E-6,0
ONEWEB-0544,2023-004E,2026-07-13T09:50:57.852384,13.18687008,.00020339,87.9187,330.2527,102.3595,257.7765,0,U,55144,999,17315,.47088598E-4,.31E-6,0
ONEWEB-0560,2023-004F,2026-07-13T09:41:15.220896,13.18684598,.00020759,87.9184,330.2434,104.6093,255.5270,0,U,55145,999,17316,.12529273E-3,.62E-6,0
ONEWEB-0565,2023-004G,2026-07-13T09:31:33.125952,13.18687361,.00022899,87.9175,330.2702,94.4517,265.6877,0,U,55146,999,17315,.8066348E-4,.45E-6,0
ONEWEB-0567,2023-004H,2026-07-13T09:21:49.931136,13.18687771,.00022367,87.9186,330.2580,97.6865,262.4521,0,U,55147,999,17315,.4544121E-4,.31E-6,0
ONEWEB-0569,2023-004J,2026-07-13T08:46:24.421152,13.13471114,.00026639,87.8988,315.0114,113.5208,246.6201,0,U,55148,999,17361,-.94453963E-3,-.332E-5,0
ONEWEB-0570,2023-004K,2026-07-13T10:58:57.177408,13.18686763,.00020786,87.9186,330.2428,88.2288,271.9082,0,U,55149,999,17315,.1262677E-3,.63E-6,0
ONEWEB-0571,2023-004L,2026-07-13T10:49:15.460032,13.18686090,.00031441,87.9184,330.2433,103.1763,256.9720,0,U,55150,999,17316,-.20397943E-4,.5E-7,0
