ONEWEB-0597             
1 54663U 22166X   26194.63000006  .00000056  00000+0  10383-3 0  9996
2 54663  87.9221 238.7265 0001817 104.3580 255.7756 13.21823705175031
ONEWEB-0600             
1 54664U 22166Y   26194.61151826  .00000066  00000+0  12894-3 0  9992
2 54664  87.9233 238.7202 0001980 100.2134 259.9223 13.21825480175001
ONEWEB-0601             
1 54665U 22166Z   26194.60309522  .00000092  00000+0  19031-3 0  9999
2 54665  87.9224 238.7389 0001696 101.4351 258.6973 13.21824904175194
ONEWEB-0602             
1 54666U 22166AA  26194.64429800  .00000034  00000+0  50817-4 0  9990
2 54666  87.9232 238.7353 0001901 103.1538 256.9808 13.21823585175046
ONEWEB-0603             
1 54667U 22166AB  26194.49878890  .00000006  00000+0 -17864-4 0  9996
2 54667  87.9254 238.7220 0001961 100.3413 259.7943 13.21823677174953
ONEWEB-0604             
1 54668U 22166AC  26194.63840757  .00000033  00000+0  48077-4 0  9993
2 54668  87.9247 238.7113 0002098  98.8616 261.2756 13.21823738174931
ONEWEB-0605             
1 54669U 22166AD  26194.63167975 -.00000008  00000+0 -50841-4 0  9994
2 54669  87.9237 238.7237 0001879  81.2146 278.9200 13.21824029175000
ONEWEB-0606             
1 54670U 22166AE  26194.50216116  .00000015  00000+0  54041-5 0  9997
2 54670  87.9234 238.7624 0002188 100.6705 259.4676 13.21824835175040
ONEWEB-0607             
1 54671U 22166AF  26194.61992731  .00000094  00000+0  19508-3 0  9998
2 54671  87.9238 238.7123 0001936  95.8141 264.3214 13.21825535175038
ONEWEB-0608             
1 54672U 22166AG  26194.62663051  .00000047  00000+0  82610-4 0  9993
2 54672  87.9234 238.7095 0001937  79.5240 280.6112 13.21823765175045
ONEWEB-0610             
1 54673U 22166AH  26194.60646970  .00000087  00000+0  17893-3 0  9997
2 54673  87.9234 238.7234 0001508  89.5993 270.5313 13.21825905174948
ONEWEB-0611             
1 54674U 22166AJ  26194.59971587  .00000089  00000+0  18423-3 0  9993
2 54674  87.9235 238.7199 0002196  97.8343 262.3040 13.21826480174939
ONEWEB-0612             
1 54675U 22166AK  26194.61319060  .00000061  00000+0  11684-3 0  9991
2 54675  87.9241 238.7171 0001768  98.1581 261.9753 13.21826432174921
ONEWEB-0615             
1 54676U 22166AL  26194.59298973  .00000028  00000+0  35190-4 0  9990
2 54676  87.9234 238.7327 0002202 101.2160 258.9222 13.21823619174932
ONEWEB-0655             
1 54677U 22166AM  26194.64513872 -.00000009  00000+0 -52170-4 0  9993
2 54677  87.9212 238.7268 0001872 103.5657 256.5686 13.21823285174938
ONEWEB-0659             
1 54678U 22166AN  26194.58627144  .00000089  00000+0  18338-3 0  9998
2 54678  87.9220 238.7369 0002613  79.4795 280.6633 13.21824714175016
ONEWEB-0685             
1 54679U 22166AP  26194.58592858 -.00000119  00000+0 -31966-3 0  9990
2 54679  87.9248 238.7225 0002575  65.3671 294.7731 13.21848047174909
ONEWEB-0712             
1 54680U 22166AQ  26194.58294790 -.00000039  00000+0 -13633-3 0  9998
2 54680  87.9080 223.5318 0001787 106.1927 253.9401 13.16595287175532
ONEWEB-0714             
1 54681U 22166AR  26194.59132989  .00000051  00000+0  90769-4 0  9999
2 54681  87.9234 238.7228 0001999 104.6883 255.4473 13.21825783175024
ONEWEB-0532             
1 55140U 23004A   26194.45829217  .00000105  00000+0  23769-3 0  9999
2 55140  87.9142   0.6374 0002008  85.5588 274.5773 13.17649078171041
ONEWEB-0533             
1 55141U 23004B   26194.45427605 -.00000328  00000+0 -94590-3 0  9994
2 55141  87.8961 345.4469 0001653  93.6385 266.4933 13.12442953171502
ONEWEB-0541             
1 55142U 23004C   26194.50469517  .00000370  00000+0  10079-2 0  9993
2 55142  87.8894  15.8193 0002041  89.5666 270.5696 13.11414856169394
ONEWEB-0543             
1 55143U 23004D   26194.41713889  .00000017  00000+0  98111-5 0  9992
2 55143  87.9184 330.2519 0001864 105.1033 255.0305 13.18686586173151
ONEWEB-0544             
1 55144U 23004E   26194.41039181  .00000031  00000+0  47089-4 0  9992
2 55144  87.9187 330.2527 0002033 102.3595 257.7765 13.18687008173154
ONEWEB-0560             
1 55145U 23004F   26194.40364839  .00000062  00000+0  12529-3 0  9997
2 55145  87.9184 330.2434 0002075 104.6093 255.5270 13.18684598173162
ONEWEB-0565             
1 55146U 23004G   26194.39691118  .00000045  00000+0  80663-4 0  9995
2 55146  87.9175 330.2702 0002289  94.4517 265.6877 13.18687361173150
ONEWEB-0567             
1 55147U 23004H   26194.39016124  .00000031  00000+0  45441-4 0  9994
2 55147  87.9186 330.2580 0002236  97.6865 262.4521 13.18687771173156
ONEWEB-0569             
1 55148U 23004J   26194.36556043 -.00000332  00000+0 -94454-3 0  9994
2 55148  87.8988 315.0114 0002663 113.5208 246.6201 13.13471114173610
ONEWEB-0570             
1 55149U 23004K   26194.45760622  .00000063  00000+0  12627-3 0  9996
2 55149  87.9186 330.2428 0002078  88.2288 271.9082 13.18686763173155
ONEWEB-0571             
1 55150U 23004L   26194.45087338  .00000005  00000+0 -20398-4 0  9996
2 55150  87.9184 330.2433 0003144 103.1763 256.9720 13.18686090173167
